SL-8 R/B                
1 11574U 79089B   26064.23714203  .00000368  00000+0  11914-3 0  9996
2 11574  74.0672  99.2870 0017136 272.3978  87.5216 14.42347335435464
SL-14 R/B               
1 11672U 80005B   26064.16390114  .00000775  00000+0  75871-4 0  9993
2 11672  82.5154 311.5291 0015784 172.9693 187.1751 14.90924299475812
SL-8 R/B                
1 12139U 81003B   26064.09962291  .00020990  00000+0  54116-3 0  9993
2 12139  82.9385 294.2686 0262617 194.5791 164.7768 15.10758620313988
SL-3 R/B                
1 12465U 81046B   26064.24184982  .00015076  00000+0  35197-3 0  9999
2 12465  81.2304 295.0856 0019965  37.3903 322.8724 15.41858348437748
SL-3 R/B                
1 12904U 81103B   26064.23404540  .00008083  00000+0  35941-3 0  9992
2 12904  81.1579 218.6584 0012454 302.7510  57.2520 15.21310641972550
SL-3 R/B                
1 13068U 82013B   26064.24398594  .00006250  00000+0  27112-3 0  9992
2 13068  81.1767 165.9798 0022376 192.2934 167.7755 15.21961057403670
SL-3 R/B                
1 13154U 82039B   26064.28349223  .00003822  00000+0  23117-3 0  9998
2 13154  81.1582 221.0417 0029841 338.8451  21.1537 15.10049873380978
SL-3 R/B                
1 13403U 82079B   26064.33565024  .00008820  00000+0  35227-3 0  9992
2 13403  81.1477 198.2170 0024880 179.2830 180.8443 15.24719795377039
SL-14 R/B               
1 13553U 82092B   26064.26826286  .00000676  00000+0  73133-4 0  9995
2 13553  82.5702 145.5346 0019264 319.1682 100.0657 14.86661399328277
SL-3 R/B                
1 13819U 83010B   26064.23109617  .00021117  00000+0  42662-3 0  9995
2 13819  81.1066   7.7115 0018332  65.2047 295.1102 15.46165473357252
SL-3 R/B                
1 14208U 83075B   26064.26392758  .00014006  00000+0  37086-3 0  9995
2 14208  97.6136  68.6735 0019794 243.1653 116.7567 15.38288914329475
COSMOS 1536             
1 14699U 84013A   26064.18883832  .00007629  00000+0  31532-3 0  9994
2 14699  82.5434 112.3248 0012702 300.7697  59.2289 15.23756826271934
SL-14 R/B               
1 14820U 84027B   26063.97952115  .00000627  00000+0  68916-4 0  9990
2 14820  82.5381 249.4315 0017764 353.9919   6.1081 14.85970460246930
SL-8 R/B                
1 15483U 85006B   26064.01351209  .00000192  00000+0  72308-4 0  9994
2 15483  74.0433 269.7539 0018637 188.6470 322.4053 14.37778848153357
SL-12 R/B(2)            
1 15772U 85042D   26064.26494242  .00000146  00000+0  86964-4 0  9999
2 15772  71.1064  97.0780 0033424 135.3926 298.7744 14.21981194113768
SL-14 R/B               
1 15945U 85069B   26064.16768233  .00000710  00000+0  77504-4 0  9990
2 15945  82.5275  29.1846 0018072 203.0256 157.0153 14.86426563172165
SL-16 R/B               
1 16182U 85097B   26064.24746537 -.00000081  00000+0 -16439-4 0  9990
2 16182  71.0036 149.9060 0009971 265.1071 114.7583 14.16599689 86601
